start=new Date('2022-09-07T00:00:00.000Z').valueOf();
sats=[{"MEAN_ANOMALY":"10.5287","EPHEMERIS_TYPE":"0","BSTAR":"0.00061362000000","GP_ID":"211922536","OBJECT_ID":"2022-016U","MEAN_MOTION_DOT":"0.00009487","DECAY_DATE":null,"REF_FRAME":"TEME","COUNTRY_CODE":"US","OBJECT_TYPE":"PAYLOAD","TLE_LINE1":"1 51732U 22016U   22249.91667824  .00009487  00000-0  61362-3 0  9990","PERIAPSIS":"538.604","RCS_SIZE":"LARGE","CLASSIFICATION_TYPE":"U","FILE":"3561419","APOAPSIS":"540.993","EPOCH":"2022-09-06T22:00:00.999936","LAUNCH_DATE":"2022-02-21","TLE_LINE2":"2 51732  53.2181 304.2561 0001727  53.2425  10.5287 15.08822674  1309","SITE":"AFETR","CENTER_NAME":"EARTH","PERIOD":"95.439","ARG_OF_PERICENTER":"53.2425","REV_AT_EPOCH":"130","MEAN_MOTION_DDOT":"0.0000000000000","RA_OF_ASC_NODE":"304.2561","ECCENTRICITY":"0.00017270","MEAN_MOTION":"15.08822674","OBJECT_NAME":"STARLINK-3518","INCLINATION":"53.2181","NORAD_CAT_ID":"51732","MEAN_ELEMENT_THEORY":"SGP4","TIME_SYSTEM":"UTC","SEMIMAJOR_AXIS":"6917.933","ELEMENT_SET_NO":"999"},{"APOAPSIS":"541.066","LAUNCH_DATE":"2022-02-21","EPOCH":"2022-09-06T22:00:00.999936","TLE_LINE2":"2 51733  53.2188 304.2394 0001736  45.8948 337.8445 15.08800977 31438","ARG_OF_PERICENTER":"45.8948","REV_AT_EPOCH":"3143","CENTER_NAME":"EARTH","SITE":"AFETR","PERIOD":"95.440","MEAN_MOTION_DDOT":"0.0000000000000","RA_OF_ASC_NODE":"304.2394","MEAN_MOTION":"15.08800977","ECCENTRICITY":"0.00017360","OBJECT_NAME":"STARLINK-3525","MEAN_ELEMENT_THEORY":"SGP4","NORAD_CAT_ID":"51733","INCLINATION":"53.2188","TIME_SYSTEM":"UTC","ELEMENT_SET_NO":"999","SEMIMAJOR_AXIS":"6918.000","MEAN_ANOMALY":"337.8445","EPHEMERIS_TYPE":"0","GP_ID":"211897298","BSTAR":"0.00059568000000","MEAN_MOTION_DOT":"0.00009195","OBJECT_ID":"2022-016V","DECAY_DATE":null,"REF_FRAME":"TEME","COUNTRY_CODE":"US","OBJECT_TYPE":"PAYLOAD","PERIAPSIS":"538.664","TLE_LINE1":"1 51733U 22016V   22249.91667824  .00009195  00000-0  59568-3 0  9992","RCS_SIZE":"LARGE","FILE":"3561351","CLASSIFICATION_TYPE":"U"},{"MEAN_ANOMALY":"80.4838","EPHEMERIS_TYPE":"0","BSTAR":"0.00067473000000","GP_ID":"211897309","OBJECT_ID":"2022-016W","MEAN_MOTION_DOT":"0.00010455","DECAY_DATE":null,"REF_FRAME":"TEME","COUNTRY_CODE":"US","OBJECT_TYPE":"PAYLOAD","TLE_LINE1":"1 51734U 22016W   22249.91667824  .00010455  00000-0  67473-3 0  9998","PERIAPSIS":"538.714","RCS_SIZE":"LARGE","CLASSIFICATION_TYPE":"U","FILE":"3561351","APOAPSIS":"541.019","EPOCH":"2022-09-06T22:00:00.999936","LAUNCH_DATE":"2022-02-21","TLE_LINE2":"2 51734  53.2180 304.2439 0001666  43.2589  80.4838 15.08800381 31476","SITE":"AFETR","CENTER_NAME":"EARTH","PERIOD":"95.440","REV_AT_EPOCH":"3147","ARG_OF_PERICENTER":"43.2589","MEAN_MOTION_DDOT":"0.0000000000000","RA_OF_ASC_NODE":"304.2439","ECCENTRICITY":"0.00016660","MEAN_MOTION":"15.08800381","OBJECT_NAME":"STARLINK-3450","INCLINATION":"53.2180","NORAD_CAT_ID":"51734","MEAN_ELEMENT_THEORY":"SGP4","TIME_SYSTEM":"UTC","ELEMENT_SET_NO":"999","SEMIMAJOR_AXIS":"6918.001"},{"RCS_SIZE":"LARGE","CLASSIFICATION_TYPE":"U","FILE":"3561419","OBJECT_TYPE":"PAYLOAD","TLE_LINE1":"1 51735U 22016X   22249.91667824  .00009913  00000-0  64048-3 0  9991","PERIAPSIS":"538.740","COUNTRY_CODE":"US","REF_FRAME":"TEME","OBJECT_ID":"2022-016X","MEAN_MOTION_DOT":"0.00009913","DECAY_DATE":null,"EPHEMERIS_TYPE":"0","BSTAR":"0.00064048000000","GP_ID":"211922283","MEAN_ANOMALY":"28.0672","TIME_SYSTEM":"UTC","SEMIMAJOR_AXIS":"6917.952","ELEMENT_SET_NO":"999","INCLINATION":"53.2175","NORAD_CAT_ID":"51735","MEAN_ELEMENT_THEORY":"SGP4","OBJECT_NAME":"STARLINK-3517","ECCENTRICITY":"0.00015570","MEAN_MOTION":"15.08816412","RA_OF_ASC_NODE":"304.2528","SITE":"AFETR","CENTER_NAME":"EARTH","PERIOD":"95.439","ARG_OF_PERICENTER":"55.6849","REV_AT_EPOCH":"130","MEAN_MOTION_DDOT":"0.0000000000000","EPOCH":"2022-09-06T22:00:00.999936","LAUNCH_DATE":"2022-02-21","TLE_LINE2":"2 51735  53.2175 304.2528 0001557  55.6849  28.0672 15.08816412  1300","APOAPSIS":"540.895"},{"EPHEMERIS_TYPE":"0","GP_ID":"211923036","BSTAR":"0.00064698000000","MEAN_ANOMALY":"106.0432","REF_FRAME":"TEME","MEAN_MOTION_DOT":"0.00010017","OBJECT_ID":"2022-016Y","DECAY_DATE":null,"OBJECT_TYPE":"PAYLOAD","PERIAPSIS":"538.670","TLE_LINE1":"1 51736U 22016Y   22249.91667824  .00010017  00000-0  64698-3 0  9990","COUNTRY_CODE":"US","RCS_SIZE":"LARGE","FILE":"3561419","CLASSIFICATION_TYPE":"U","LAUNCH_DATE":"2022-02-21","EPOCH":"2022-09-06T22:00:00.999936","TLE_LINE2":"2 51736  53.2165 304.2374 0001662  57.6875 106.0432 15.08815814  1303","APOAPSIS":"540.969","RA_OF_ASC_NODE":"304.2374","REV_AT_EPOCH":"130","ARG_OF_PERICENTER":"57.6875","SITE":"AFETR","CENTER_NAME":"EARTH","PERIOD":"95.439","MEAN_MOTION_DDOT":"0.0000000000000","OBJECT_NAME":"STARLINK-3447","MEAN_MOTION":"15.08815814","ECCENTRICITY":"0.00016620","TIME_SYSTEM":"UTC","ELEMENT_SET_NO":"999","SEMIMAJOR_AXIS":"6917.954","NORAD_CAT_ID":"51736","MEAN_ELEMENT_THEORY":"SGP4","INCLINATION":"53.2165"},{"RCS_SIZE":"LARGE","CLASSIFICATION_TYPE":"U","FILE":"3561419","COUNTRY_CODE":"US","OBJECT_TYPE":"PAYLOAD","TLE_LINE1":"1 51737U 22016Z   22249.91667824  .00010065  00000-0  64983-3 0  9991","PERIAPSIS":"538.583","OBJECT_ID":"2022-016Z","MEAN_MOTION_DOT":"0.00010065","DECAY_DATE":null,"REF_FRAME":"TEME","MEAN_ANOMALY":"49.6657","EPHEMERIS_TYPE":"0","BSTAR":"0.00064983000000","GP_ID":"211923287","INCLINATION":"53.2173","NORAD_CAT_ID":"51737","MEAN_ELEMENT_THEORY":"SGP4","TIME_SYSTEM":"UTC","SEMIMAJOR_AXIS":"6917.926","ELEMENT_SET_NO":"999","ECCENTRICITY":"0.00017460","MEAN_MOTION":"15.08825120","OBJECT_NAME":"STARLINK-3509","SITE":"AFETR","CENTER_NAME":"EARTH","PERIOD":"95.438","ARG_OF_PERICENTER":"54.0964","REV_AT_EPOCH":"130","MEAN_MOTION_DDOT":"0.0000000000000","RA_OF_ASC_NODE":"304.2401","APOAPSIS":"540.999","EPOCH":"2022-09-06T22:00:00.999936","LAUNCH_DATE":"2022-02-21","TLE_LINE2":"2 51737  53.2173 304.2401 0001746  54.0964  49.6657 15.08825120  1309"},{"COUNTRY_CODE":"US","OBJECT_TYPE":"PAYLOAD","TLE_LINE1":"1 51738U 22016AA  22249.91667824  .00009277  00000-0  60065-3 0  9992","PERIAPSIS":"538.700","RCS_SIZE":"LARGE","CLASSIFICATION_TYPE":"U","FILE":"3561351","MEAN_ANOMALY":"155.4790","EPHEMERIS_TYPE":"0","BSTAR":"0.00060065000000","GP_ID":"211897787","OBJECT_ID":"2022-016AA","MEAN_MOTION_DOT":"0.00009277","DECAY_DATE":null,"REF_FRAME":"TEME","ECCENTRICITY":"0.00016370","MEAN_MOTION":"15.08811379","OBJECT_NAME":"STARLINK-3515","INCLINATION":"53.2177","MEAN_ELEMENT_THEORY":"SGP4","NORAD_CAT_ID":"51738","TIME_SYSTEM":"UTC","ELEMENT_SET_NO":"999","SEMIMAJOR_AXIS":"6917.968","APOAPSIS":"540.965","EPOCH":"2022-09-06T22:00:00.999936","LAUNCH_DATE":"2022-02-21","TLE_LINE2":"2 51738  53.2177 304.2449 0001637  48.2510 155.4790 15.08811379 31473","CENTER_NAME":"EARTH","SITE":"AFETR","PERIOD":"95.439","ARG_OF_PERICENTER":"48.2510","REV_AT_EPOCH":"3147","MEAN_MOTION_DDOT":"0.0000000000000","RA_OF_ASC_NODE":"304.2449"},{"MEAN_ANOMALY":"89.2698","BSTAR":"-0.00013113000000","GP_ID":"211921784","EPHEMERIS_TYPE":"0","DECAY_DATE":null,"OBJECT_ID":"2022-016AB","MEAN_MOTION_DOT":"-0.00002373","REF_FRAME":"TEME","COUNTRY_CODE":"US","TLE_LINE1":"1 51739U 22016AB  22249.91667824 -.00002373  00000-0 -13113-3 0  9997","PERIAPSIS":"538.696","OBJECT_TYPE":"PAYLOAD","CLASSIFICATION_TYPE":"U","FILE":"3561419","RCS_SIZE":"LARGE","APOAPSIS":"540.967","TLE_LINE2":"2 51739  53.2182 304.2449 0001641  54.4989  89.2698 15.08811792  1303","LAUNCH_DATE":"2022-02-21","EPOCH":"2022-09-06T22:00:00.999936","MEAN_MOTION_DDOT":"0.0000000000000","SITE":"AFETR","PERIOD":"95.439","CENTER_NAME":"EARTH","REV_AT_EPOCH":"130","ARG_OF_PERICENTER":"54.4989","RA_OF_ASC_NODE":"304.2449","ECCENTRICITY":"0.00016410","MEAN_MOTION":"15.08811792","OBJECT_NAME":"STARLINK-3516","INCLINATION":"53.2182","MEAN_ELEMENT_THEORY":"SGP4","NORAD_CAT_ID":"51739","ELEMENT_SET_NO":"999","SEMIMAJOR_AXIS":"6917.967","TIME_SYSTEM":"UTC"},{"TLE_LINE2":"2 51740  53.2167 304.2391 0001762  50.8164 192.8795 15.08822137  1307","EPOCH":"2022-09-06T22:00:00.999936","LAUNCH_DATE":"2022-02-21","APOAPSIS":"541.019","RA_OF_ASC_NODE":"304.2391","MEAN_MOTION_DDOT":"0.0000000000000","ARG_OF_PERICENTER":"50.8164","REV_AT_EPOCH":"130","PERIOD":"95.439","SITE":"AFETR","CENTER_NAME":"EARTH","OBJECT_NAME":"STARLINK-3500","MEAN_MOTION":"15.08822137","ECCENTRICITY":"0.00017620","SEMIMAJOR_AXIS":"6917.935","ELEMENT_SET_NO":"999","TIME_SYSTEM":"UTC","MEAN_ELEMENT_THEORY":"SGP4","NORAD_CAT_ID":"51740","INCLINATION":"53.2167","GP_ID":"211922537","BSTAR":"0.00054640000000","EPHEMERIS_TYPE":"0","MEAN_ANOMALY":"192.8795","REF_FRAME":"TEME","DECAY_DATE":null,"MEAN_MOTION_DOT":"0.00008414","OBJECT_ID":"2022-016AC","PERIAPSIS":"538.581","TLE_LINE1":"1 51740U 22016AC  22249.91667824  .00008414  00000-0  54640-3 0  9999","OBJECT_TYPE":"PAYLOAD","COUNTRY_CODE":"US","FILE":"3561419","CLASSIFICATION_TYPE":"U","RCS_SIZE":"LARGE"},{"MEAN_ANOMALY":"124.3840","GP_ID":"211922788","BSTAR":"0.00063309000000","EPHEMERIS_TYPE":"0","DECAY_DATE":null,"MEAN_MOTION_DOT":"0.00009794","OBJECT_ID":"2022-016AD","REF_FRAME":"TEME","COUNTRY_CODE":"US","PERIAPSIS":"538.849","TLE_LINE1":"1 51741U 22016AD  22249.91667824  .00009794  00000-0  63309-3 0  9994","OBJECT_TYPE":"PAYLOAD","FILE":"3561419","CLASSIFICATION_TYPE":"U","RCS_SIZE":"LARGE","APOAPSIS":"540.829","TLE_LINE2":"2 51741  53.2171 304.2410 0001431  59.4222 124.3840 15.08809319  1306","LAUNCH_DATE":"2022-02-21","EPOCH":"2022-09-06T22:00:00.999936","MEAN_MOTION_DDOT":"0.0000000000000","REV_AT_EPOCH":"130","ARG_OF_PERICENTER":"59.4222","CENTER_NAME":"EARTH","SITE":"AFETR","PERIOD":"95.439","RA_OF_ASC_NODE":"304.2410","MEAN_MOTION":"15.08809319","ECCENTRICITY":"0.00014310","OBJECT_NAME":"STARLINK-3520","NORAD_CAT_ID":"51741","MEAN_ELEMENT_THEORY":"SGP4","INCLINATION":"53.2171","ELEMENT_SET_NO":"999","SEMIMAJOR_AXIS":"6917.974","TIME_SYSTEM":"UTC"}];
